{"type": "FeatureCollection", "features": [ {"type": "Feature", "properties": {"norad_id": 34878, "name": "COSMOS 2251 DEB", "group": "cosmos-2251-debris", "lat": 72.01400245846439, "lon": 144.1494089772533, "alt_km": 1076.5169442453098, "timestamp": "2025-12-25T20:42:39.083063+00:00", "meta": {"OBJECT_NAME": "COSMOS 2251 DEB", "OBJECT_ID": "1993-036ACR", "EPOCH": "2025-12-24T20:09:00.800640", "MEAN_MOTION": 13.44206529, "ECCENTRICITY": 0.04357079, "INCLINATION": 73.9646, "RA_OF_ASC_NODE": 28.1265, "ARG_OF_PERICENTER": 9.2783, "MEAN_ANOMALY": 173.5848, "EPHEMERIS_TYPE": 0, "CLASSIFICATION_TYPE": "U", "NORAD_CAT_ID": 34878, "ELEMENT_SET_NO": 999, "REV_AT_EPOCH": 81435, "BSTAR": 0.00069766947, "MEAN_MOTION_DOT": 6.96e-06, "MEAN_MOTION_DDOT": 0}, "tle": {"line1": "1 34878U 93036ACR 25358.83959260  .00000696  00000+0  69767-3 0  9994", "line2": "2 34878  73.9646  28.1265 0435707   9.2783 173.5848 13.44206529814359"}}, "geometry": {"type": "Point", "coordinates": [144.1494089772533, 72.01400245846439]}}, {"type": "Feature", "properties": {"norad_id": 34882, "name": "COSMOS 2251 DEB", "group": "cosmos-2251-debris", "lat": 47.95561377352071, "lon": -141.0035262923612, "alt_km": 679.0257648406086, "timestamp": "2025-12-25T20:42:39.083074+00:00", "meta": {"OBJECT_NAME": "COSMOS 2251 DEB", "OBJECT_ID": "1993-036ACV", "EPOCH": "2025-12-24T14:54:49.727232", "MEAN_MOTION": 14.61616436, "ECCENTRICITY": 0.00833525, "INCLINATION": 74.0451, "RA_OF_ASC_NODE": 202.874, "ARG_OF_PERICENTER": 327.0403, "MEAN_ANOMALY": 32.5581, "EPHEMERIS_TYPE": 0, "CLASSIFICATION_TYPE": "U", "NORAD_CAT_ID": 34882, "ELEMENT_SET_NO": 999, "REV_AT_EPOCH": 88698, "BSTAR": 0.00012189648, "MEAN_MOTION_DOT": 6.03e-06, "MEAN_MOTION_DDOT": 0}, "tle": {"line1": "1 34882U 93036ACV 25358.62140888  .00000603  00000+0  12190-3 0  9990", "line2": "2 34882  74.0451 202.8740 0083352 327.0403  32.5581 14.61616436886982"}}, "geometry": {"type": "Point", "coordinates": [-141.0035262923612, 47.95561377352071]}}, {"type": "Feature", "properties": {"norad_id": 34883, "name": "COSMOS 2251 DEB", "group": "cosmos-2251-debris", "lat": -10.272733288317795, "lon": 35.30903582615194, "alt_km": 764.9948389968904, "timestamp": "2025-12-25T20:42:39.083083+00:00", "meta": {"OBJECT_NAME": "COSMOS 2251 DEB", "OBJECT_ID": "1993-036ACW", "EPOCH": "2025-12-24T13:20:21.010272", "MEAN_MOTION": 14.51829665, "ECCENTRICITY": 0.00944854, "INCLINATION": 74.2007, "RA_OF_ASC_NODE": 40.6871, "ARG_OF_PERICENTER": 223.5222, "MEAN_ANOMALY": 135.8459, "EPHEMERIS_TYPE": 0, "CLASSIFICATION_TYPE": "U", "NORAD_CAT_ID": 34883, "ELEMENT_SET_NO": 999, "REV_AT_EPOCH": 86611, "BSTAR": 0.0033928759, "MEAN_MOTION_DOT": 0.00014478, "MEAN_MOTION_DDOT": 0}, "tle": {"line1": "1 34883U 93036ACW 25358.55579873  .00014478  00000+0  33929-2 0  9990", "line2": "2 34883  74.2007  40.6871 0094485 223.5222 135.8459 14.51829665866116"}}, "geometry": {"type": "Point", "coordinates": [35.30903582615194, -10.272733288317795]}}, {"type": "Feature", "properties": {"norad_id": 34884, "name": "COSMOS 2251 DEB", "group": "cosmos-2251-debris", "lat": -49.593597492047756, "lon": 10.762499844324799, "alt_km": 602.0616861847839, "timestamp": "2025-12-25T20:42:39.083093+00:00", "meta": {"OBJECT_NAME": "COSMOS 2251 DEB", "OBJECT_ID": "1993-036ACX", "EPOCH": "2025-12-25T05:09:45.607680", "MEAN_MOTION": 14.90612339, "ECCENTRICITY": 0.00031837, "INCLINATION": 74.0172, "RA_OF_ASC_NODE": 31.7366, "ARG_OF_PERICENTER": 28.5094, "MEAN_ANOMALY": 44.2037, "EPHEMERIS_TYPE": 0, "CLASSIFICATION_TYPE": "U", "NORAD_CAT_ID": 34884, "ELEMENT_SET_NO": 999, "REV_AT_EPOCH": 87991, "BSTAR": 0.0024039953, "MEAN_MOTION_DOT": 0.0002359, "MEAN_MOTION_DDOT": 0}, "tle": {"line1": "1 34884U 93036ACX 25359.21511120  .00023590  00000+0  24040-2 0  9995", "line2": "2 34884  74.0172  31.7366 0003183  28.5094  44.2037 14.90612339879911"}}, "geometry": {"type": "Point", "coordinates": [10.762499844324799, -49.593597492047756]}}, {"type": "Feature", "properties": {"norad_id": 34885, "name": "COSMOS 2251 DEB", "group": "cosmos-2251-debris", "lat": 17.749980320430275, "lon": -26.947497149007766, "alt_km": 719.0919286788912, "timestamp": "2025-12-25T20:42:39.083103+00:00", "meta": {"OBJECT_NAME": "COSMOS 2251 DEB", "OBJECT_ID": "1993-036ACY", "EPOCH": "2025-12-24T21:20:43.105920", "MEAN_MOTION": 14.51566685, "ECCENTRICITY": 0.0015052, "INCLINATION": 74.0302, "RA_OF_ASC_NODE": 160.1446, "ARG_OF_PERICENTER": 245.5774, "MEAN_ANOMALY": 230.5636, "EPHEMERIS_TYPE": 0, "CLASSIFICATION_TYPE": "U", "NORAD_CAT_ID": 34885, "ELEMENT_SET_NO": 999, "REV_AT_EPOCH": 87655, "BSTAR": 0.0008262, "MEAN_MOTION_DOT": 3.285e-05, "MEAN_MOTION_DDOT": 0}, "tle": {"line1": "1 34885U 93036ACY 25358.88938780  .00003285  00000+0  82620-3 0  9991", "line2": "2 34885  74.0302 160.1446 0015052 245.5774 230.5636 14.51566685876558"}}, "geometry": {"type": "Point", "coordinates": [-26.947497149007766, 17.749980320430275]}}, {"type": "Feature", "properties": {"norad_id": 34886, "name": "COSMOS 2251 DEB", "group": "cosmos-2251-debris", "lat": 69.3345434656672, "lon": -157.74254418699638, "alt_km": 442.67389535866914, "timestamp": "2025-12-25T20:42:39.083113+00:00", "meta": {"OBJECT_NAME": "COSMOS 2251 DEB", "OBJECT_ID": "1993-036ACZ", "EPOCH": "2025-12-24T03:50:55.292352", "MEAN_MOTION": 15.40106218, "ECCENTRICITY": 0.0031856, "INCLINATION": 73.9515, "RA_OF_ASC_NODE": 156.2077, "ARG_OF_PERICENTER": 338.1702, "MEAN_ANOMALY": 21.8145, "EPHEMERIS_TYPE": 0, "CLASSIFICATION_TYPE": "U", "NORAD_CAT_ID": 34886, "ELEMENT_SET_NO": 999, "REV_AT_EPOCH": 63174, "BSTAR": 0.0019524781, "MEAN_MOTION_DOT": 0.00080389, "MEAN_MOTION_DDOT": 0}, "tle": {"line1": "1 34886U 93036ACZ 25358.16036218  .00080389  00000+0  19525-2 0  9991", "line2": "2 34886  73.9515 156.2077 0031856 338.1702  21.8145 15.40106218631746"}}, "geometry": {"type": "Point", "coordinates": [-157.74254418699638, 69.3345434656672]}}, {"type": "Feature", "properties": {"norad_id": 34907, "name": "COSMOS 2251 DEB", "group": "cosmos-2251-debris", "lat": 72.09437842096857, "lon": 82.44979839000794, "alt_km": 403.13312869713263, "timestamp": "2025-12-25T20:42:39.083123+00:00", "meta": {"OBJECT_NAME": "COSMOS 2251 DEB", "OBJECT_ID": "1993-036ADC", "EPOCH": "2025-12-24T02:37:30.225504", "MEAN_MOTION": 15.52535461, "ECCENTRICITY": 0.00168337, "INCLINATION": 73.9648, "RA_OF_ASC_NODE": 23.4353, "ARG_OF_PERICENTER": 325.481, "MEAN_ANOMALY": 34.5309, "EPHEMERIS_TYPE": 0, "CLASSIFICATION_TYPE": "U", "NORAD_CAT_ID": 34907, "ELEMENT_SET_NO": 999, "REV_AT_EPOCH": 88149, "BSTAR": 0.0074290364, "MEAN_MOTION_DOT": 0.00487105, "MEAN_MOTION_DDOT": 0}, "tle": {"line1": "1 34907U 93036ADC 25358.10937761  .00487105  00000+0  74290-2 0  9999", "line2": "2 34907  73.9648  23.4353 0016833 325.4810  34.5309 15.52535461881497"}}, "geometry": {"type": "Point", "coordinates": [82.44979839000794, 72.09437842096857]}}, {"type": "Feature", "properties": {"norad_id": 34908, "name": "COSMOS 2251 DEB", "group": "cosmos-2251-debris", "lat": -72.97783172889156, "lon": -69.46802655935632, "alt_km": 776.7195186333074, "timestamp": "2025-12-25T20:42:39.083133+00:00", "meta": {"OBJECT_NAME": "COSMOS 2251 DEB", "OBJECT_ID": "1993-036ADD", "EPOCH": "2025-12-24T10:43:39.700992", "MEAN_MOTION": 14.37433526, "ECCENTRICITY": 0.00406595, "INCLINATION": 74.0579, "RA_OF_ASC_NODE": 2.1423, "ARG_OF_PERICENTER": 14.7235, "MEAN_ANOMALY": 137.436, "EPHEMERIS_TYPE": 0, "CLASSIFICATION_TYPE": "U", "NORAD_CAT_ID": 34908, "ELEMENT_SET_NO": 999, "REV_AT_EPOCH": 87447, "BSTAR": 0.0005476007, "MEAN_MOTION_DOT": 1.627e-05, "MEAN_MOTION_DDOT": 0}, "tle": {"line1": "1 34908U 93036ADD 25358.44698728  .00001627  00000+0  54760-3 0  9996", "line2": "2 34908  74.0579   2.1423 0040659  14.7235 137.4360 14.37433526874478"}}, "geometry": {"type": "Point", "coordinates": [-69.46802655935632, -72.97783172889156]}}, {"type": "Feature", "properties": {"norad_id": 34909, "name": "COSMOS 2251 DEB", "group": "cosmos-2251-debris", "lat": 19.132371478464798, "lon": -134.93668696975794, "alt_km": 581.8542710930869, "timestamp": "2025-12-25T20:42:39.083143+00:00", "meta": {"OBJECT_NAME": "COSMOS 2251 DEB", "OBJECT_ID": "1993-036ADE", "EPOCH": "2025-12-25T03:44:30.423552", "MEAN_MOTION": 14.77930946, "ECCENTRICITY": 0.00836343, "INCLINATION": 74.0141, "RA_OF_ASC_NODE": 52.1604, "ARG_OF_PERICENTER": 185.0658, "MEAN_ANOMALY": 174.9681, "EPHEMERIS_TYPE": 0, "CLASSIFICATION_TYPE": "U", "NORAD_CAT_ID": 34909, "ELEMENT_SET_NO": 999, "REV_AT_EPOCH": 67035, "BSTAR": 0.00050710948, "MEAN_MOTION_DOT": 3.838e-05, "MEAN_MOTION_DDOT": 0}, "tle": {"line1": "1 34909U 93036ADE 25359.15590768  .00003838  00000+0  50711-3 0  9999", "line2": "2 34909  74.0141  52.1604 0083634 185.0658 174.9681 14.77930946670356"}}, "geometry": {"type": "Point", "coordinates": [-134.93668696975794, 19.132371478464798]}}, {"type": "Feature", "properties": {"norad_id": 34910, "name": "COSMOS 2251 DEB", "group": "cosmos-2251-debris", "lat": -15.76355780812693, "lon": 76.03243629662654, "alt_km": 1408.154667376465, "timestamp": "2025-12-25T20:42:39.083153+00:00", "meta": {"OBJECT_NAME": "COSMOS 2251 DEB", "OBJECT_ID": "1993-036ADF", "EPOCH": "2025-12-23T22:45:30.280032", "MEAN_MOTION": 13.37707493, "ECCENTRICITY": 0.0467761, "INCLINATION": 73.8761, "RA_OF_ASC_NODE": 83.7364, "ARG_OF_PERICENTER": 200.8485, "MEAN_ANOMALY": 282.4529, "EPHEMERIS_TYPE": 0, "CLASSIFICATION_TYPE": "U", "NORAD_CAT_ID": 34910, "ELEMENT_SET_NO": 999, "REV_AT_EPOCH": 81674, "BSTAR": 0.0010465, "MEAN_MOTION_DOT": 1.013e-05, "MEAN_MOTION_DDOT": 0}, "tle": {"line1": "1 34910U 93036ADF 25357.94826713  .00001013  00000+0  10465-2 0  9992", "line2": "2 34910  73.8761  83.7364 0467761 200.8485 282.4529 13.37707493816742"}}, "geometry": {"type": "Point", "coordinates": [76.03243629662654, -15.76355780812693]}}]}